{"type":"FeatureCollection","features":[{"type":"Feature","id":0,"properties":{"id":0,"name":"Ghana"},"geometry":{"type":"Polygon","coordinates":[[[0.9957,5.9135],[0.993,5.8677],[0.9811,5.8373],[0.9533,5.8016],[0.9248,5.7841],[0.8501,5.7761],[0.8143,5.7646],[0.744,5.7597],[0.4585,5.772],[0.3595,5.7861],[0.2864,5.7765],[0.2384,5.7608],[0.2164,5.7467],[0.1824,5.7409],[0.1392,5.7201],[0.1172,5.7002],[0.0694,5.6893],[0.0428,5.6676],[0.0192,5.6337],[-0.0253,5.6117],[-0.0574,5.6052],[-0.1313,5.5611],[-0.2071,5.5397],[-0.2128,5.5309],[-0.3691,5.4948],[-0.4017,5.4759],[-0.4296,5.4463],[-0.4668,5.429],[-0.4684,5.4135],[-0.4958,5.3787],[-0.5406,5.3638],[-0.6088,5.3537],[-0.6231,5.3295],[-0.6606,5.3241],[-0.7241,5.2983],[-0.7341,5.2796],[-0.7596,5.2642],[-0.7605,5.2552],[-0.809,5.2136],[-0.8818,5.203],[-0.9104,5.2047],[-0.9257,5.1976],[-0.9397,5.203],[-1.0065,5.202],[-1.0122,5.1965],[-1.0829,5.1951],[-1.1489,5.1621],[-1.1668,5.145],[-1.1961,5.1364],[-1.2009,5.1277],[-1.247,5.1005],[-1.3283,5.0942],[-1.3642,5.0761],[-1.4381,5.0638],[-1.4941,5.0461],[-1.6125,5.0274],[-1.6326,5.0142],[-1.6311,4.9928],[-1.6464,4.9704],[-1.692,4.9594],[-1.7056,4.9503],[-1.7096,4.9324],[-1.7414,4.9175],[-1.7523,4.8765],[-1.8044,4.8746],[-1.8371,4.8487],[-1.8618,4.844],[-1.8674,4.8495],[-1.8701,4.8409],[-1.89,4.8266],[-1.9152,4.823],[-1.917,4.8138],[-1.9376,4.8045],[-1.9415,4.7936],[-1.9842,4.7554],[-2.0255,4.7557],[-2.0424,4.7523],[-2.0555,4.741],[-2.0783,4.7451],[-2.092,4.7367],[-2.0953,4.7519],[-2.1126,4.761],[-2.1102,4.7804],[-2.1529,4.7963],[-2.1669,4.79],[-2.1679,4.8013],[-2.1794,4.8152],[-2.2015,4.82],[-2.22,4.8422],[-2.2448,4.8538],[-2.2535,4.8825],[-2.2675,4.8907],[-2.2685,4.899],[-2.3561,4.931],[-2.6952,5.0083],[-3.0329,5.0712],[-3.1107,5.0944],[-3.1115,5.1107],[-3.0765,5.105],[-3.0695,5.1152],[-3.0533,5.1067],[-3.054,5.1148],[-3.0344,5.1177],[-3.0051,5.1052],[-2.9795,5.0824],[-2.9574,5.0793],[-2.9437,5.0904],[-2.9306,5.0884],[-2.9316,5.1055],[-2.9208,5.1137],[-2.8914,5.1136],[-2.8884,5.1194],[-2.87,5.1185],[-2.8474,5.104],[-2.8277,5.1139],[-2.8178,5.1018],[-2.8067,5.1101],[-2.7936,5.1051],[-2.7868,5.1162],[-2.784,5.1096],[-2.7698,5.1099],[-2.758,5.1012],[-2.7544,5.1143],[-2.7422,5.1139],[-2.7405,5.1248],[-2.7277,5.1377],[-2.7464,5.1636],[-2.7438,5.18],[-2.7506,5.1991],[-2.7581,5.1963],[-2.7652,5.2087],[-2.7588,5.2122],[-2.7575,5.2285],[-2.7653,5.232],[-2.7552,5.2354],[-2.7565,5.2549],[-2.7718,5.2498],[-2.7788,5.2619],[-2.7692,5.2632],[-2.7826,5.2721],[-2.787,5.2842],[-2.7732,5.2951],[-2.7719,5.3154],[-2.7781,5.327],[-2.7724,5.3311],[-2.7777,5.3382],[-2.7665,5.3482],[-2.7549,5.3372],[-2.7278,5.3377],[-2.7264,5.3792],[-2.7505,5.4348],[-2.7705,5.5406],[-2.7629,5.5935],[-2.7751,5.6006],[-2.774,5.611],[-2.7859,5.6123],[-2.7889,5.6236],[-2.8025,5.6192],[-2.8122,5.6282],[-2.8241,5.629],[-2.8569,5.647],[-2.8617,5.6559],[-2.8968,5.624],[-2.9334,5.612],[-2.9468,5.6283],[-2.9676,5.6371],[-2.9568,5.7088],[-3.0255,5.7075],[-3.0184,5.8622],[-3.0792,6.0037],[-3.104,6.1492],[-3.1537,6.2447],[-3.1773,6.2435],[-3.1732,6.255],[-3.177,6.3129],[-3.1858,6.326],[-3.2366,6.5388],[-3.2342,6.5965],[-3.2549,6.6095],[-3.2484,6.6436],[-3.2298,6.6623],[-3.2187,6.692],[-3.197,6.7144],[-3.2102,6.7477],[-3.2324,6.7699],[-3.2294,6.818],[-3.0903,7.0527],[-3.0358,7.0717],[-3.0272,7.1384],[-2.9543,7.2351],[-2.9776,7.2772],[-2.9691,7.355],[-2.9503,7.4196],[-2.9493,7.45],[-2.9347,7.4866],[-2.9235,7.6086],[-2.8694,7.732],[-2.8506,7.7619],[-2.8486,7.7803],[-2.8317,7.8008],[-2.8304,7.8201],[-2.7982,7.8508],[-2.7916,7.8646],[-2.7809,7.9496],[-2.7596,7.9396],[-2.7453,7.9181],[-2.7327,7.9486],[-2.6731,8.027],[-2.6312,8.04],[-2.6001,8.0424],[-2.592,8.0526],[-2.5883,8.0745],[-2.6181,8.1306],[-2.6192,8.1485],[-2.5941,8.1747],[-2.5565,8.1704],[-2.4949,8.2052],[-2.5045,8.3341],[-2.549,8.5424],[-2.5872,8.7787],[-2.597,8.7858],[-2.6192,8.7762],[-2.6298,8.7843],[-2.5999,8.8177],[-2.6277,8.8642],[-2.6281,8.9096],[-2.6559,8.9298],[-2.6641,8.9476],[-2.6635,8.9816],[-2.6562,8.9992],[-2.6826,9.0148],[-2.7528,9.0242],[-2.7699,9.0365],[-2.7797,9.0554],[-2.7654,9.0984],[-2.7762,9.1327],[-2.7398,9.154],[-2.7154,9.2008],[-2.6696,9.2326],[-2.6643,9.2478],[-2.6764,9.2736],[-2.7188,9.2922],[-2.7223,9.3093],[-2.7187,9.3299],[-2.7036,9.337],[-2.6841,9.3622],[-2.6789,9.3792],[-2.6915,9.427],[-2.6904,9.4965],[-2.7137,9.5227],[-2.7345,9.5316],[-2.7714,9.5643],[-2.7792,9.5857],[-2.7768,9.5973],[-2.7542,9.642],[-2.7629,9.6738],[-2.7882,9.6911],[-2.7957,9.7052],[-2.7952,9.7477],[-2.7685,9.7951],[-2.7422,9.8151],[-2.7357,9.8283],[-2.7656,9.8696],[-2.7709,9.8925],[-2.7701,9.9139],[-2.7527,9.9565],[-2.7918,10.0517],[-2.7964,10.1061],[-2.7897,10.1354],[-2.7996,10.1807],[-2.794,10.1941],[-2.7705,10.2171],[-2.7625,10.2386],[-2.7771,10.2627],[-2.8394,10.2943],[-2.854,10.3184],[-2.8348,10.3852],[-2.8272,10.3924],[-2.8056,10.3924],[-2.7914,10.3995],[-2.7764,10.4177],[-2.8286,10.4288],[-2.8699,10.452],[-2.8824,10.4908],[-2.8969,10.5092],[-2.9055,10.5463],[-2.9424,10.6126],[-2.9456,10.6295],[-2.9407,10.6436],[-2.9167,10.6659],[-2.9113,10.6862],[-2.9166,10.6953],[-2.9425,10.7039],[-2.9414,10.7158],[-2.8938,10.7741],[-2.8829,10.827],[-2.8691,10.8528],[-2.8694,10.8785],[-2.8407,10.8884],[-2.8251,10.9133],[-2.823,10.931],[-2.8447,10.9599],[-2.8343,11.0042],[-2.7722,11.0047],[-2.7623,10.9982],[-2.7012,10.995],[-2.6091,10.996],[-2.5054,10.9834],[-2.255,10.9884],[-2.158,10.9779],[-1.7907,10.9825],[-1.756,10.9821],[-1.7417,10.9761],[-1.7159,10.977],[-1.6599,10.9969],[-1.5927,10.9883],[-1.5869,11.019],[-1.4318,11.018],[-1.3974,10.9902],[-1.3101,10.9929],[-1.1219,10.9828],[-1.1195,11.001],[-1.0096,10.9985],[-0.9983,10.9906],[-0.933,10.9942],[-0.9215,10.9736],[-0.9034,10.9718],[-0.8906,10.9598],[-0.8787,10.9591],[-0.8607,10.9894],[-0.837,10.9915],[-0.833,11.0028],[-0.8141,11.0028],[-0.8089,10.9928],[-0.6871,10.9907],[-0.6888,10.9812],[-0.6817,10.9753],[-0.6716,10.983],[-0.6564,10.9809],[-0.6731,10.9538],[-0.6631,10.9479],[-0.6574,10.9579],[-0.6495,10.9421],[-0.6339,10.9385],[-0.6211,10.9022],[-0.5956,10.9125],[-0.595,10.9435],[-0.5697,10.9813],[-0.5585,10.9817],[-0.5516,10.9728],[-0.5344,10.9916],[-0.5194,10.9842],[-0.4826,11.0241],[-0.4563,11.0194],[-0.4375,11.0297],[-0.4429,11.0547],[-0.4327,11.0983],[-0.3996,11.12],[-0.3767,11.116],[-0.3791,11.1008],[-0.3611,11.0681],[-0.3449,11.0841],[-0.3374,11.1039],[-0.274,11.1219],[-0.2762,11.1334],[-0.2914,11.1436],[-0.2733,11.1733],[-0.142,11.139],[-0.1459,11.1049],[-0.1117,11.0901],[-0.0937,11.0886],[-0.0187,11.1061],[0.0073,11.1028],[0.0178,11.0922],[0.0321,10.9847],[0.0067,10.9614],[-0.0117,10.9565],[-0.0141,10.9107],[-0.0313,10.8727],[-0.0281,10.8179],[-0.0677,10.7689],[-0.0736,10.7693],[-0.0747,10.7235],[-0.0881,10.7146],[-0.0712,10.6761],[-0.0639,10.641],[-0.0541,10.6315],[0.0344,10.596],[0.048,10.5878],[0.0713,10.5549],[0.1319,10.5307],[0.141,10.5152],[0.1549,10.4536],[0.1678,10.4399],[0.1695,10.4225],[0.1927,10.3969],[0.2038,10.3983],[0.203,10.4112],[0.2132,10.4172],[0.2479,10.4055],[0.2815,10.416],[0.2988,10.3913],[0.2894,10.3724],[0.306,10.3633],[0.315,10.3337],[0.3252,10.3351],[0.3313,10.3292],[0.3316,10.3191],[0.32,10.3126],[0.3189,10.3054],[0.3809,10.309],[0.393,10.3017],[0.3697,10.2805],[0.379,10.2722],[0.3591,10.2526],[0.3582,10.217],[0.3496,10.1847],[0.3569,10.1236],[0.3478,10.0957],[0.3541,10.0827],[0.3862,10.0769],[0.4137,10.0598],[0.4146,10.0534],[0.4042,10.017],[0.3531,10.0289],[0.3574,10.008],[0.3536,9.9772],[0.3824,9.9376],[0.3748,9.9279],[0.3569,9.9232],[0.3489,9.9107],[0.3523,9.843],[0.3265,9.7856],[0.3307,9.7734],[0.321,9.7653],[0.3243,9.7532],[0.315,9.7246],[0.338,9.7126],[0.3476,9.671],[0.362,9.6619],[0.3666,9.6456],[0.3601,9.6198],[0.3763,9.585],[0.351,9.5688],[0.3241,9.5746],[0.2829,9.573],[0.257,9.563],[0.2379,9.5704],[0.2298,9.5428],[0.2371,9.5196],[0.2876,9.517],[0.3055,9.5033],[0.2899,9.4853],[0.276,9.4829],[0.2633,9.472],[0.2286,9.4803],[0.2271,9.4555],[0.2436,9.439],[0.2432,9.4312],[0.2729,9.4224],[0.3309,9.4451],[0.3439,9.4677],[0.3408,9.483],[0.3537,9.4914],[0.3853,9.4854],[0.4169,9.4959],[0.4475,9.4937],[0.4995,9.4688],[0.5,9.4412],[0.5166,9.4453],[0.5483,9.4241],[0.5628,9.4022],[0.5582,9.362],[0.5431,9.34],[0.545,9.3104],[0.5051,9.2628],[0.5022,9.2439],[0.5264,9.2053],[0.5003,9.1621],[0.4704,9.1463],[0.4758,9.1098],[0.4564,9.0754],[0.4529,9.0469],[0.4569,9.018],[0.5161,8.9204],[0.5167,8.8987],[0.5288,8.8758],[0.5194,8.8684],[0.5169,8.8532],[0.5024,8.8407],[0.4934,8.8088],[0.4685,8.7949],[0.456,8.8086],[0.4479,8.8076],[0.4329,8.7983],[0.4383,8.7903],[0.4342,8.7839],[0.4189,8.7939],[0.39,8.7905],[0.3843,8.7792],[0.3969,8.7618],[0.3817,8.7495],[0.4661,8.6065],[0.4756,8.5981],[0.4964,8.5964],[0.5129,8.5687],[0.5325,8.5736],[0.5381,8.5587],[0.5589,8.5499],[0.5791,8.5263],[0.6163,8.5139],[0.6437,8.492],[0.6638,8.4204],[0.7078,8.397],[0.7143,8.3844],[0.7151,8.3571],[0.7221,8.3539],[0.72,8.3421],[0.7297,8.3328],[0.7252,8.2841],[0.6939,8.2813],[0.6749,8.2628],[0.6408,8.2571],[0.624,8.2209],[0.5949,8.2056],[0.5917,8.1971],[0.6095,8.1671],[0.6073,8.1435],[0.5954,8.1356],[0.5914,8.1202],[0.5914,8.0892],[0.6072,8.0037],[0.6011,8.0],[0.5974,7.9753],[0.6135,7.9206],[0.6225,7.8607],[0.613,7.8067],[0.6137,7.7899],[0.6234,7.7849],[0.6243,7.7642],[0.614,7.761],[0.6082,7.7463],[0.6174,7.7052],[0.5898,7.707],[0.5746,7.6494],[0.578,7.617],[0.5186,7.5876],[0.5086,7.5223],[0.517,7.4837],[0.5018,7.4637],[0.5135,7.4486],[0.5246,7.4467],[0.5349,7.4099],[0.56,7.3909],[0.5828,7.3883],[0.6151,7.4027],[0.6462,7.3902],[0.6584,7.3111],[0.6439,7.2803],[0.6321,7.2006],[0.5989,7.1321],[0.6144,7.0914],[0.5955,7.058],[0.5996,7.0134],[0.5854,7.0008],[0.5573,6.9996],[0.5163,6.9665],[0.5147,6.9482],[0.5478,6.9323],[0.5582,6.9143],[0.5508,6.8849],[0.528,6.8431],[0.5303,6.8258],[0.5563,6.8249],[0.584,6.8037],[0.5833,6.7959],[0.5722,6.8033],[0.5665,6.8001],[0.5764,6.7616],[0.5886,6.763],[0.645,6.7459],[0.6376,6.6322],[0.658,6.6067],[0.6716,6.6113],[0.6799,6.6073],[0.6888,6.5915],[0.681,6.5843],[0.6911,6.5791],[0.7273,6.5852],[0.7372,6.5772],[0.7385,6.553],[0.7174,6.5275],[0.7187,6.511],[0.7282,6.4788],[0.7569,6.4325],[0.7828,6.416],[0.7894,6.3996],[0.8268,6.3938],[0.8659,6.3703],[0.9038,6.3213],[0.9963,6.3236],[1.0272,6.2419],[1.0575,6.2219],[1.0912,6.1588],[1.1917,6.155],[1.1918,6.1044],[1.1384,6.0804],[1.0923,6.0505],[1.061,6.0159],[0.9957,5.9135]]]}}]}